[{"OBJECT_NAME":"ONEWEB-0429","OBJECT_ID":"2021-132AH","EPOCH":"2026-05-08T02:59:34.178496","MEAN_MOTION":13.1868762,"ECCENTRICITY":0.0001795,"INCLINATION":87.9182,"RA_OF_ASC_NODE":343.4322,"ARG_OF_PERICENTER":78.1387,"MEAN_ANOMALY":281.9946,"EPHEMERIS_TYPE":0,"CLASSIFICATION_TYPE":"U","NORAD_CAT_ID":50500,"ELEMENT_SET_NO":999,"REV_AT_EPOCH":21630,"BSTAR":0.0001685,"MEAN_MOTION_DOT":7.9e-07,"MEAN_MOTION_DDOT":0.0},{"OBJECT_NAME":"ONEWEB-0430","OBJECT_ID":"2021-132AJ","EPOCH":"2026-05-08T02:42:32.441472","MEAN_MOTION":13.18685288,"ECCENTRICITY":0.0001576,"INCLINATION":87.9183,"RA_OF_ASC_NODE":343.4331,"ARG_OF_PERICENTER":80.0495,"MEAN_ANOMALY":280.0815,"EPHEMERIS_TYPE":0,"CLASSIFICATION_TYPE":"U","NORAD_CAT_ID":50501,"ELEMENT_SET_NO":999,"REV_AT_EPOCH":21634,"BSTAR":-3.5436000000000004e-05,"MEAN_MOTION_DOT":-1e-08,"MEAN_MOTION_DDOT":0.0},{"OBJECT_NAME":"ONEWEB-0432","OBJECT_ID":"2021-132AK","EPOCH":"2026-05-08T03:30:28.044288","MEAN_MOTION":13.18712524,"ECCENTRICITY":0.0001213,"INCLINATION":87.9186,"RA_OF_ASC_NODE":343.3973,"ARG_OF_PERICENTER":89.6916,"MEAN_ANOMALY":270.4356,"EPHEMERIS_TYPE":0,"CLASSIFICATION_TYPE":"U","NORAD_CAT_ID":50502,"ELEMENT_SET_NO":999,"REV_AT_EPOCH":21630,"BSTAR":6.672400000000001e-05,"MEAN_MOTION_DOT":3.9e-07,"MEAN_MOTION_DDOT":0.0},{"OBJECT_NAME":"ONEWEB-0440","OBJECT_ID":"2021-132AL","EPOCH":"2026-05-08T03:11:42.806112","MEAN_MOTION":13.18687286,"ECCENTRICITY":0.0002104,"INCLINATION":87.9191,"RA_OF_ASC_NODE":343.4216,"ARG_OF_PERICENTER":77.6694,"MEAN_ANOMALY":282.4673,"EPHEMERIS_TYPE":0,"CLASSIFICATION_TYPE":"U","NORAD_CAT_ID":50503,"ELEMENT_SET_NO":999,"REV_AT_EPOCH":21629,"BSTAR":-5.5546e-05,"MEAN_MOTION_DOT":-9e-08,"MEAN_MOTION_DDOT":0.0},{"OBJECT_NAME":"ONEWEB-0450","OBJECT_ID":"2021-132AM","EPOCH":"2026-05-08T03:02:11.546592","MEAN_MOTION":13.18686561,"ECCENTRICITY":0.0001745,"INCLINATION":87.9179,"RA_OF_ASC_NODE":343.4325,"ARG_OF_PERICENTER":76.8832,"MEAN_ANOMALY":283.2495,"EPHEMERIS_TYPE":0,"CLASSIFICATION_TYPE":"U","NORAD_CAT_ID":50504,"ELEMENT_SET_NO":999,"REV_AT_EPOCH":21632,"BSTAR":-1.1131000000000002e-06,"MEAN_MOTION_DOT":1.2e-07,"MEAN_MOTION_DDOT":0.0},{"OBJECT_NAME":"ONEWEB-0410","OBJECT_ID":"2022-012A","EPOCH":"2026-05-08T04:46:27.107904","MEAN_MOTION":13.17649709,"ECCENTRICITY":0.0002415,"INCLINATION":87.9184,"RA_OF_ASC_NODE":13.8015,"ARG_OF_PERICENTER":115.3198,"MEAN_ANOMALY":244.8184,"EPHEMERIS_TYPE":0,"CLASSIFICATION_TYPE":"U","NORAD_CAT_ID":51622,"ELEMENT_SET_NO":999,"REV_AT_EPOCH":20843,"BSTAR":6.5477e-05,"MEAN_MOTION_DOT":3.8e-07,"MEAN_MOTION_DDOT":0.0},{"OBJECT_NAME":"ONEWEB-0411","OBJECT_ID":"2022-012B","EPOCH":"2026-05-08T05:32:16.406880","MEAN_MOTION":13.10370109,"ECCENTRICITY":0.0001466,"INCLINATION":87.8856,"RA_OF_ASC_NODE":44.2155,"ARG_OF_PERICENTER":64.8419,"MEAN_ANOMALY":295.2861,"EPHEMERIS_TYPE":0,"CLASSIFICATION_TYPE":"U","NORAD_CAT_ID":51623,"ELEMENT_SET_NO":999,"REV_AT_EPOCH":20405,"BSTAR":0.0005375600000000001,"MEAN_MOTION_DOT":2e-06,"MEAN_MOTION_DDOT":0.0},{"OBJECT_NAME":"ONEWEB-0415","OBJECT_ID":"2022-012C","EPOCH":"2026-05-08T05:27:30.001248","MEAN_MOTION":13.10369772,"ECCENTRICITY":0.0001607,"INCLINATION":87.8846,"RA_OF_ASC_NODE":44.218,"ARG_OF_PERICENTER":80.0238,"MEAN_ANOMALY":280.1071,"EPHEMERIS_TYPE":0,"CLASSIFICATION_TYPE":"U","NORAD_CAT_ID":51624,"ELEMENT_SET_NO":999,"REV_AT_EPOCH":20405,"BSTAR":0.0011828,"MEAN_MOTION_DOT":4.26e-06,"MEAN_MOTION_DDOT":0.0},{"OBJECT_NAME":"ONEWEB-0416","OBJECT_ID":"2022-012D","EPOCH":"2026-05-08T05:44:12.941088","MEAN_MOTION":13.10370278,"ECCENTRICITY":0.0001416,"INCLINATION":87.8847,"RA_OF_ASC_NODE":44.2342,"ARG_OF_PERICENTER":82.5676,"MEAN_ANOMALY":277.5612,"EPHEMERIS_TYPE":0,"CLASSIFICATION_TYPE":"U","NORAD_CAT_ID":51625,"ELEMENT_SET_NO":999,"REV_AT_EPOCH":20409,"BSTAR":-0.00023204,"MEAN_MOTION_DOT":-6.8e-07,"MEAN_MOTION_DDOT":0.0},{"OBJECT_NAME":"ONEWEB-0422","OBJECT_ID":"2022-012E","EPOCH":"2026-05-08T05:01:00.928128","MEAN_MOTION":13.17649439,"ECCENTRICITY":0.0002184,"INCLINATION":87.9179,"RA_OF_ASC_NODE":13.802,"ARG_OF_PERICENTER":66.0033,"MEAN_ANOMALY":294.1327,"EPHEMERIS_TYPE":0,"CLASSIFICATION_TYPE":"U","NORAD_CAT_ID":51626,"ELEMENT_SET_NO":999,"REV_AT_EPOCH":20854,"BSTAR":-0.0005911499999999999,"MEAN_MOTION_DOT":-2.17e-06,"MEAN_MOTION_DDOT":0.0},{"OBJECT_NAME":"ONEWEB-0423","OBJECT_ID":"2022-012F","EPOCH":"2026-05-08T04:51:16.988544","MEAN_MOTION":13.17647116,"ECCENTRICITY":0.0001907,"INCLINATION":87.9172,"RA_OF_ASC_NODE":13.8109,"ARG_OF_PERICENTER":84.298,"MEAN_ANOMALY":275.8369,"EPHEMERIS_TYPE":0,"CLASSIFICATION_TYPE":"U","NORAD_CAT_ID":51627,"ELEMENT_SET_NO":999,"REV_AT_EPOCH":20843,"BSTAR":0.00013128,"MEAN_MOTION_DOT":6.4e-07,"MEAN_MOTION_DDOT":0.0},{"OBJECT_NAME":"ONEWEB-0425","OBJECT_ID":"2022-012G","EPOCH":"2026-05-08T05:58:33.918816","MEAN_MOTION":13.1037104,"ECCENTRICITY":0.0001999,"INCLINATION":87.8854,"RA_OF_ASC_NODE":44.2144,"ARG_OF_PERICENTER":88.589,"MEAN_ANOMALY":271.5467,"EPHEMERIS_TYPE":0,"CLASSIFICATION_TYPE":"U","NORAD_CAT_ID":51628,"ELEMENT_SET_NO":999,"REV_AT_EPOCH":20409,"BSTAR":-0.0015153,"MEAN_MOTION_DOT":-5.16e-06,"MEAN_MOTION_DDOT":0.0},{"OBJECT_NAME":"ONEWEB-0428","OBJECT_ID":"2022-012H","EPOCH":"2026-05-08T05:29:53.221344","MEAN_MOTION":13.10369978,"ECCENTRICITY":0.000192,"INCLINATION":87.885,"RA_OF_ASC_NODE":44.2265,"ARG_OF_PERICENTER":78.423,"MEAN_ANOMALY":281.7112,"EPHEMERIS_TYPE":0,"CLASSIFICATION_TYPE":"U","NORAD_CAT_ID":51629,"ELEMENT_SET_NO":999,"REV_AT_EPOCH":20405,"BSTAR":0.00078671,"MEAN_MOTION_DOT":2.87e-06,"MEAN_MOTION_DDOT":0.0},{"OBJECT_NAME":"ONEWEB-0431","OBJECT_ID":"2022-012J","EPOCH":"2026-05-08T06:36:36.707040","MEAN_MOTION":13.1037638,"ECCENTRICITY":0.0001598,"INCLINATION":87.8862,"RA_OF_ASC_NODE":44.2083,"ARG_OF_PERICENTER":60.3628,"MEAN_ANOMALY":299.7659,"EPHEMERIS_TYPE":0,"CLASSIFICATION_TYPE":"U","NORAD_CAT_ID":51630,"ELEMENT_SET_NO":999,"REV_AT_EPOCH":20411,"BSTAR":5.2869000000000005e-05,"MEAN_MOTION_DOT":3.1e-07,"MEAN_MOTION_DDOT":0.0},{"OBJECT_NAME":"ONEWEB-0434","OBJECT_ID":"2022-012K","EPOCH":"2026-05-08T06:03:31.537440","MEAN_MOTION":13.10372988,"ECCENTRICITY":0.0002196,"INCLINATION":87.8857,"RA_OF_ASC_NODE":44.2372,"ARG_OF_PERICENTER":94.1035,"MEAN_ANOMALY":266.0343,"EPHEMERIS_TYPE":0,"CLASSIFICATION_TYPE":"U","NORAD_CAT_ID":51631,"ELEMENT_SET_NO":999,"REV_AT_EPOCH":20409,"BSTAR":-0.001745,"MEAN_MOTION_DOT":-5.96e-06,"MEAN_MOTION_DDOT":0.0},{"OBJECT_NAME":"ONEWEB-0435","OBJECT_ID":"2022-012L","EPOCH":"2026-05-08T06:15:16.691040","MEAN_MOTION":13.10374471,"ECCENTRICITY":0.0001982,"INCLINATION":87.886,"RA_OF_ASC_NODE":44.2239,"ARG_OF_PERICENTER":72.4104,"MEAN_ANOMALY":287.724,"EPHEMERIS_TYPE":0,"CLASSIFICATION_TYPE":"U","NORAD_CAT_ID":51632,"ELEMENT_SET_NO":999,"REV_AT_EPOCH":20408,"BSTAR":-0.0017226,"MEAN_MOTION_DOT":-5.89e-06,"MEAN_MOTION_DDOT":0.0}]