ONEWEB-0429             
1 50500U 21132AH  26128.12470114  .00000079  00000+0  16850-3 0  9996
2 50500  87.9182 343.4322 0001795  78.1387 281.9946 13.18687620216307
ONEWEB-0430             
1 50501U 21132AJ  26128.11287548 -.00000001  00000+0 -35436-4 0  9992
2 50501  87.9183 343.4331 0001576  80.0495 280.0815 13.18685288216345
ONEWEB-0432             
1 50502U 21132AK  26128.14615792  .00000039  00000+0  66724-4 0  9995
2 50502  87.9186 343.3973 0001213  89.6916 270.4356 13.18712524216304
ONEWEB-0440             
1 50503U 21132AL  26128.13313433 -.00000009  00000+0 -55546-4 0  9991
2 50503  87.9191 343.4216 0002104  77.6694 282.4673 13.18687286216291
ONEWEB-0450             
1 50504U 21132AM  26128.12652253  .00000012  00000+0 -11131-5 0  9993
2 50504  87.9179 343.4325 0001745  76.8832 283.2495 13.18686561216324
ONEWEB-0410             
1 51622U 22012A   26128.19892486  .00000038  00000+0  65477-4 0  9992
2 51622  87.9184  13.8015 0002415 115.3198 244.8184 13.17649709208438
ONEWEB-0411             
1 51623U 22012B   26128.23074545  .00000200  00000+0  53756-3 0  9993
2 51623  87.8856  44.2155 0001466  64.8419 295.2861 13.10370109204050
ONEWEB-0415             
1 51624U 22012C   26128.22743057  .00000426  00000+0  11828-2 0  9997
2 51624  87.8846  44.2180 0001607  80.0238 280.1071 13.10369772204054
ONEWEB-0416             
1 51625U 22012D   26128.23903867 -.00000068  00000+0 -23204-3 0  9992
2 51625  87.8847  44.2342 0001416  82.5676 277.5612 13.10370278204095
ONEWEB-0422             
1 51626U 22012E   26128.20903852 -.00000217  00000+0 -59115-3 0  9990
2 51626  87.9179  13.8020 0002184  66.0033 294.1327 13.17649439208544
ONEWEB-0423             
1 51627U 22012F   26128.20227996  .00000064  00000+0  13128-3 0  9991
2 51627  87.9172  13.8109 0001907  84.2980 275.8369 13.17647116208431
ONEWEB-0425             
1 51628U 22012G   26128.24900369 -.00000516  00000+0 -15153-2 0  9991
2 51628  87.8854  44.2144 0001999  88.5890 271.5467 13.10371040204096
ONEWEB-0428             
1 51629U 22012H   26128.22908821  .00000287  00000+0  78671-3 0  9999
2 51629  87.8850  44.2265 0001920  78.4230 281.7112 13.10369978204050
ONEWEB-0431             
1 51630U 22012J   26128.27542485  .00000031  00000+0  52869-4 0  9995
2 51630  87.8862  44.2083 0001598  60.3628 299.7659 13.10376380204112
ONEWEB-0434             
1 51631U 22012K   26128.25244835 -.00000596  00000+0 -17450-2 0  9995
2 51631  87.8857  44.2372 0002196  94.1035 266.0343 13.10372988204094
ONEWEB-0435             
1 51632U 22012L   26128.26060985 -.00000589  00000+0 -17226-2 0  9992
2 51632  87.8860  44.2239 0001982  72.4104 287.7240 13.10374471204083
